[
    {
        "Altitude(m)": 702828.3044124029,
        "Argument of Periapsis(deg)": 0.006834072711976239,
        "Eccentricity": 0.0,
        "Inclination(deg)": 45.0,
        "Latitude(deg)": 6.636689912440225,
        "Longitude(deg)": 77.90247902371895,
        "Mean Anomaly(deg)": 170.5563299884885,
        "RAAN(deg)": 4.993548835125078,
        "Satellite Name": "Constellation 1 32",
        "Satellite Number": 32,
        "Semi-Major Axis(m)": 7083131.272910544,
        "Time(s)": 114
    },
    {
        "Altitude(m)": 702830.725199936,
        "Argument of Periapsis(deg)": 0.006894020718221645,
        "Eccentricity": 0.0,
        "Inclination(deg)": 45.0,
        "Latitude(deg)": 6.593759417702743,
        "Longitude(deg)": 77.9418092430849,
        "Mean Anomaly(deg)": 170.6170311287384,
        "RAAN(deg)": 4.993492245959508,
        "Satellite Name": "Constellation 1 32",
        "Satellite Number": 32,
        "Semi-Major Axis(m)": 7083131.272910544,
        "Time(s)": 115
    },
    {
        "Altitude(m)": 702833.1665164417,
        "Argument of Periapsis(deg)": 0.006953968724467052,
        "Eccentricity": 0.0,
        "Inclination(deg)": 45.0,
        "Latitude(deg)": 6.550825120929445,
        "Longitude(deg)": 77.98113194101052,
        "Mean Anomaly(deg)": 170.6777322689883,
        "RAAN(deg)": 4.993435656793939,
        "Satellite Name": "Constellation 1 32",
        "Satellite Number": 32,
        "Semi-Major Axis(m)": 7083131.272910544,
        "Time(s)": 116
    },
    {
        "Altitude(m)": 702835.6283696257,
        "Argument of Periapsis(deg)": 0.007013916730712457,
        "Eccentricity": 0.0,
        "Inclination(deg)": 45.0,
        "Latitude(deg)": 6.507887048167791,
        "Longitude(deg)": 78.0204471670908,
        "Mean Anomaly(deg)": 170.7384334092382,
        "RAAN(deg)": 4.99337906762837,
        "Satellite Name": "Constellation 1 32",
        "Satellite Number": 32,
        "Semi-Major Axis(m)": 7083131.272910544,
        "Time(s)": 117
    },
    {
        "Altitude(m)": 702838.110767117,
        "Argument of Periapsis(deg)": 0.007073864736957864,
        "Eccentricity": 0.0,
        "Inclination(deg)": 45.0,
        "Latitude(deg)": 6.4649452254508555,
        "Longitude(deg)": 78.0597549709045,
        "Mean Anomaly(deg)": 170.7991345494881,
        "RAAN(deg)": 4.993322478462799,
        "Satellite Name": "Constellation 1 32",
        "Satellite Number": 32,
        "Semi-Major Axis(m)": 7083131.272910544,
        "Time(s)": 118
    },
    {
        "Altitude(m)": 702840.6137164484,
        "Argument of Periapsis(deg)": 0.0071338127432032696,
        "Eccentricity": 0.0,
        "Inclination(deg)": 45.0,
        "Latitude(deg)": 6.421999678797409,
        "Longitude(deg)": 78.09905523391707,
        "Mean Anomaly(deg)": 170.859835689738,
        "RAAN(deg)": 4.993265889297231,
        "Satellite Name": "Constellation 1 32",
        "Satellite Number": 32,
        "Semi-Major Axis(m)": 7083131.272910544,
        "Time(s)": 119
    },
    {
        "Altitude(m)": 702843.1372250593,
        "Argument of Periapsis(deg)": 0.007193760749448674,
        "Eccentricity": 0.0,
        "Inclination(deg)": 45.0,
        "Latitude(deg)": 6.379050434212418,
        "Longitude(deg)": 78.13834834186889,
        "Mean Anomaly(deg)": 170.9205368299879,
        "RAAN(deg)": 4.99320930013166,
        "Satellite Name": "Constellation 1 32",
        "Satellite Number": 32,
        "Semi-Major Axis(m)": 7083131.272910544,
        "Time(s)": 120
    },
    {
        "Altitude(m)": 702845.6813003037,
        "Argument of Periapsis(deg)": 0.007253708755694079,
        "Eccentricity": 0.0,
        "Inclination(deg)": 45.0,
        "Latitude(deg)": 6.336097517686375,
        "Longitude(deg)": 78.17763417619332,
        "Mean Anomaly(deg)": 170.9812379702378,
        "RAAN(deg)": 4.993152710966092,
        "Satellite Name": "Constellation 1 32",
        "Satellite Number": 32,
        "Semi-Major Axis(m)": 7083131.272910544,
        "Time(s)": 121
    },
    {
        "Altitude(m)": 702848.2459494412,
        "Argument of Periapsis(deg)": 0.0073136567619394854,
        "Eccentricity": 0.0,
        "Inclination(deg)": 45.0,
        "Latitude(deg)": 6.293140955196075,
        "Longitude(deg)": 78.21691278640466,
        "Mean Anomaly(deg)": 171.0419391104877,
        "RAAN(deg)": 4.993096121800522,
        "Satellite Name": "Constellation 1 32",
        "Satellite Number": 32,
        "Semi-Major Axis(m)": 7083131.272910544,
        "Time(s)": 122
    },
    {
        "Altitude(m)": 702850.8311796449,
        "Argument of Periapsis(deg)": 0.0073736047681848904,
        "Eccentricity": 0.0,
        "Inclination(deg)": 45.0,
        "Latitude(deg)": 6.250180772704211,
        "Longitude(deg)": 78.25618422200158,
        "Mean Anomaly(deg)": 171.1026402507376,
        "RAAN(deg)": 4.993039532634952,
        "Satellite Name": "Constellation 1 32",
        "Satellite Number": 32,
        "Semi-Major Axis(m)": 7083131.272910544,
        "Time(s)": 123
    },
    {
        "Altitude(m)": 702853.4369979977,
        "Argument of Periapsis(deg)": 0.007433552774430298,
        "Eccentricity": 0.0,
        "Inclination(deg)": 45.0,
        "Latitude(deg)": 6.20721699616006,
        "Longitude(deg)": 78.29544853246674,
        "Mean Anomaly(deg)": 171.16334139098748,
        "RAAN(deg)": 4.992982943469383,
        "Satellite Name": "Constellation 1 32",
        "Satellite Number": 32,
        "Semi-Major Axis(m)": 7083131.272910544,
        "Time(s)": 124
    },
    {
        "Altitude(m)": 702856.0634114887,
        "Argument of Periapsis(deg)": 0.007493500780675703,
        "Eccentricity": 0.0,
        "Inclination(deg)": 45.0,
        "Latitude(deg)": 6.164249651498834,
        "Longitude(deg)": 78.33470576726741,
        "Mean Anomaly(deg)": 171.2240425312374,
        "RAAN(deg)": 4.992926354303813,
        "Satellite Name": "Constellation 1 32",
        "Satellite Number": 32,
        "Semi-Major Axis(m)": 7083131.272910544,
        "Time(s)": 125
    },
    {
        "Altitude(m)": 702858.7104270168,
        "Argument of Periapsis(deg)": 0.007553448786921108,
        "Eccentricity": 0.0,
        "Inclination(deg)": 45.0,
        "Latitude(deg)": 6.1212787646423745,
        "Longitude(deg)": 78.37395580775805,
        "Mean Anomaly(deg)": 171.2847436714873,
        "RAAN(deg)": 4.992869765138244,
        "Satellite Name": "Constellation 1 32",
        "Satellite Number": 32,
        "Semi-Major Axis(m)": 7083131.272910544,
        "Time(s)": 126
    },
    {
        "Altitude(m)": 702861.3780513998,
        "Argument of Periapsis(deg)": 0.007613396793166514,
        "Eccentricity": 0.0,
        "Inclination(deg)": 45.0,
        "Latitude(deg)": 6.0783043614990895,
        "Longitude(deg)": 78.41319903956915,
        "Mean Anomaly(deg)": 171.3454448117372,
        "RAAN(deg)": 4.992813175972675,
        "Satellite Name": "Constellation 1 32",
        "Satellite Number": 32,
        "Semi-Major Axis(m)": 7083131.272910544,
        "Time(s)": 127
    },
    {
        "Altitude(m)": 702864.0662913432,
        "Argument of Periapsis(deg)": 0.007673344799411918,
        "Eccentricity": 0.0,
        "Inclination(deg)": 45.0,
        "Latitude(deg)": 6.0353264679639755,
        "Longitude(deg)": 78.45243534402431,
        "Mean Anomaly(deg)": 171.4061459519871,
        "RAAN(deg)": 4.992756586807104,
        "Satellite Name": "Constellation 1 32",
        "Satellite Number": 32,
        "Semi-Major Axis(m)": 7083131.272910544,
        "Time(s)": 128
    },
    {
        "Altitude(m)": 702866.7751534934,
        "Argument of Periapsis(deg)": 0.007733292805657325,
        "Eccentricity": 0.0,
        "Inclination(deg)": 45.0,
        "Latitude(deg)": 5.992345109918568,
        "Longitude(deg)": 78.49166477052924,
        "Mean Anomaly(deg)": 171.466847092237,
        "RAAN(deg)": 4.992699997641536,
        "Satellite Name": "Constellation 1 32",
        "Satellite Number": 32,
        "Semi-Major Axis(m)": 7083131.272910544,
        "Time(s)": 129
    },
    {
        "Altitude(m)": 702869.5046443709,
        "Argument of Periapsis(deg)": 0.00779324081190273,
        "Eccentricity": 0.0,
        "Inclination(deg)": 45.0,
        "Latitude(deg)": 5.949360313231366,
        "Longitude(deg)": 78.5308873684744,
        "Mean Anomaly(deg)": 171.5275482324869,
        "RAAN(deg)": 4.992643408475965,
        "Satellite Name": "Constellation 1 32",
        "Satellite Number": 32,
        "Semi-Major Axis(m)": 7083131.272910544,
        "Time(s)": 130
    },
    {
        "Altitude(m)": 702872.2547704405,
        "Argument of Periapsis(deg)": 0.007853188818148135,
        "Eccentricity": 0.0,
        "Inclination(deg)": 45.0,
        "Latitude(deg)": 5.906372103757711,
        "Longitude(deg)": 78.5701031872351,
        "Mean Anomaly(deg)": 171.58824937273678,
        "RAAN(deg)": 4.992586819310397,
        "Satellite Name": "Constellation 1 32",
        "Satellite Number": 32,
        "Semi-Major Axis(m)": 7083131.272910544,
        "Time(s)": 131
    },
    {
        "Altitude(m)": 702875.0255380474,
        "Argument of Periapsis(deg)": 0.007913136824393542,
        "Eccentricity": 0.0,
        "Inclination(deg)": 45.0,
        "Latitude(deg)": 5.863380507339937,
        "Longitude(deg)": 78.60931227617186,
        "Mean Anomaly(deg)": 171.6489505129867,
        "RAAN(deg)": 4.992530230144827,
        "Satellite Name": "Constellation 1 32",
        "Satellite Number": 32,
        "Semi-Major Axis(m)": 7083131.272910544,
        "Time(s)": 132
    }
]